0 FENGYUN 1C DEB
1 31622U 99025CAC 13281.47002086  .00002011  00000-0  11358-2 0  8488
2 31622 099.0122 272.3746 0026184 107.8025 045.4253 14.11215166327018
0 FENGYUN 1C DEB
1 31622U 99025CAC 13284.44780949  .00002679  00000-0  15042-2 0  8494
2 31622 099.0121 275.3626 0026186 099.6125 053.6029 14.11231058327434
0 FENGYUN 1C DEB
1 31622U 99025CAC 13286.49896156  .00002123  00000-0  11971-2 0  8502
2 31622 099.0116 277.4216 0026277 094.0181 034.1992 14.11241481327724
0 FENGYUN 1C DEB
1 31622U 99025CAC 13288.96718786  .00002935  00000-0  16449-2 0  8515
2 31622 099.0118 279.8989 0026297 087.4577 333.6220 14.11254731328078
0 FENGYUN 1C DEB
1 31622U 99025CAC 13291.46660606  .00002960  00000-0  16584-2 0  8520
2 31622 099.0122 282.4075 0026245 080.7973 071.6468 14.11266700328429
0 FENGYUN 1C DEB
1 31622U 99025CAC 13293.71681214  .00003398  00000-0  18994-2 0  8532
2 31622 099.0128 284.6655 0026260 074.7379 343.7347 14.11278053328741
